IDEFIX & ARIANE 42P R/B 
1 27422U 02021B   26006.26607635  .00000437  00000+0  18262-3 0  9996
2 27422  98.5812 305.6423 0012232  16.5357 343.6223 14.30972981235098
AQUA                    
1 27424U 02022A   26004.96787593  .00001598  00000+0  32997-3 0  9996
2 27424  98.4069 331.2279 0002002  90.2377   0.6092 14.61798176259425
CZ-4B R/B               
1 27432U 02024C   26006.11157209  .00000084  00000+0  66288-4 0  9991
2 27432  98.8959  59.7939 0049880 199.7814 180.3434 14.14534043220396
MIDORI II (ADEOS-II)    
1 27597U 02056A   26006.28828161  .00000449  00000+0  19446-3 0  9996
2 27597  98.7668 324.3778 0001350 130.9438 229.1861 14.29228660201380
H-2A R/B                
1 27601U 02056E   26006.32836106  .00000527  00000+0  19937-3 0  9997
2 27601  98.3098 329.1108 0070153 348.4493 132.8619 14.33704001205178
CZ-4B R/B               
1 28059U 03049C   26006.21611053  .00000593  00000+0  14739-3 0  9996
2 28059  98.6806 358.7072 0049242  62.9364 297.6845 14.54939225177512
CZ-2C R/B               
1 28222U 04012C   26006.10492006  .00047394  00000+0  63421-3 0  9994
2 28222  97.7371  65.7703 0016772 177.6836 182.4499 15.57715856194518
SL-16 R/B               
1 28353U 04021B   26006.30049364  .00000322  00000+0  19239-3 0  9994
2 28353  71.0019   3.4213 0003735 159.2102 200.9173 14.14589345114015
CZ-4B R/B               
1 28415U 04035C   26006.06029156  .00009761  00000+0  35595-3 0  9997
2 28415  97.3573  41.0829 0032614 188.0029 172.0695 15.27855847170341
CZ-2C R/B               
1 28480U 04046B   26006.29022652  .00000391  00000+0  16075-3 0  9992
2 28480  98.1998 285.1443 0139142 339.8899  19.6832 14.26960700 99602
ARIANE 5 R/B            
1 28499U 04049H   26006.31330928  .00001546  00000+0  17685-3 0  9997
2 28499  98.2535 172.4793 0084133 192.4629 167.4505 14.85096948136531
CZ-2D R/B               
1 28738U 05024B   26005.99862112  .00037328  00000+0  55843-3 0  9990
2 28738  97.3620  19.1072 0003122 237.4686 122.6266 15.54903282130021
