CCSDS_OMM_VERS = 2.0
CREATION_DATE  = 
ORIGINATOR     = 

OBJECT_NAME    = IDEFIX & ARIANE 42P R/B
OBJECT_ID      = 2002-021B
CENTER_NAME    = EARTH
REF_FRAME      = TEME
TIME_SYSTEM    = UTC
MEAN_ELEMENT_THEORY = SGP/SGP4

EPOCH          = 2026-01-06T06:23:08.996640
MEAN_MOTION    = 14.30972981
ECCENTRICITY   = .00122328
INCLINATION    = 98.5812
RA_OF_ASC_NODE = 305.6423
ARG_OF_PERICENTER = 16.5357
MEAN_ANOMALY   = 343.6223

EPHEMERIS_TYPE = 0
CLASSIFICATION_TYPE = U
NORAD_CAT_ID   = 27422
ELEMENT_SET_NO = 999
REV_AT_EPOCH   = 23509
BSTAR          = .182617E-3
MEAN_MOTION_DOT = .437E-5
MEAN_MOTION_DDOT = 0

CCSDS_OMM_VERS = 2.0
CREATION_DATE  = 
ORIGINATOR     = 

OBJECT_NAME    = AQUA
OBJECT_ID      = 2002-022A
CENTER_NAME    = EARTH
REF_FRAME      = TEME
TIME_SYSTEM    = UTC
MEAN_ELEMENT_THEORY = SGP/SGP4

EPOCH          = 2026-01-04T23:13:44.480352
MEAN_MOTION    = 14.61798176
ECCENTRICITY   = .00020022
INCLINATION    = 98.4069
RA_OF_ASC_NODE = 331.2279
ARG_OF_PERICENTER = 90.2377
MEAN_ANOMALY   = 0.6092

EPHEMERIS_TYPE = 0
CLASSIFICATION_TYPE = U
NORAD_CAT_ID   = 27424
ELEMENT_SET_NO = 999
REV_AT_EPOCH   = 25942
BSTAR          = .32996806E-3
MEAN_MOTION_DOT = .1598E-4
MEAN_MOTION_DDOT = 0

CCSDS_OMM_VERS = 2.0
CREATION_DATE  = 
ORIGINATOR     = 

OBJECT_NAME    = CZ-4B R/B
OBJECT_ID      = 2002-024C
CENTER_NAME    = EARTH
REF_FRAME      = TEME
TIME_SYSTEM    = UTC
MEAN_ELEMENT_THEORY = SGP/SGP4

EPOCH          = 2026-01-06T02:40:39.828576
MEAN_MOTION    = 14.14534043
ECCENTRICITY   = .00498806
INCLINATION    = 98.8959
RA_OF_ASC_NODE = 59.7939
ARG_OF_PERICENTER = 199.7814
MEAN_ANOMALY   = 180.3434

EPHEMERIS_TYPE = 0
CLASSIFICATION_TYPE = U
NORAD_CAT_ID   = 27432
ELEMENT_SET_NO = 999
REV_AT_EPOCH   = 22039
BSTAR          = .66288311E-4
MEAN_MOTION_DOT = .84E-6
MEAN_MOTION_DDOT = 0

CCSDS_OMM_VERS = 2.0
CREATION_DATE  = 
ORIGINATOR     = 

OBJECT_NAME    = MIDORI II (ADEOS-II)
OBJECT_ID      = 2002-056A
CENTER_NAME    = EARTH
REF_FRAME      = TEME
TIME_SYSTEM    = UTC
MEAN_ELEMENT_THEORY = SGP/SGP4

EPOCH          = 2026-01-06T06:55:07.531104
MEAN_MOTION    = 14.29228660
ECCENTRICITY   = .00013503
INCLINATION    = 98.7668
RA_OF_ASC_NODE = 324.3778
ARG_OF_PERICENTER = 130.9438
MEAN_ANOMALY   = 229.1861

EPHEMERIS_TYPE = 0
CLASSIFICATION_TYPE = U
NORAD_CAT_ID   = 27597
ELEMENT_SET_NO = 999
REV_AT_EPOCH   = 20138
BSTAR          = .19446473E-3
MEAN_MOTION_DOT = .449E-5
MEAN_MOTION_DDOT = 0

CCSDS_OMM_VERS = 2.0
CREATION_DATE  = 
ORIGINATOR     = 

OBJECT_NAME    = H-2A R/B
OBJECT_ID      = 2002-056E
CENTER_NAME    = EARTH
REF_FRAME      = TEME
TIME_SYSTEM    = UTC
MEAN_ELEMENT_THEORY = SGP/SGP4

EPOCH          = 2026-01-06T07:52:50.395584
MEAN_MOTION    = 14.33704001
ECCENTRICITY   = .00701531
INCLINATION    = 98.3098
RA_OF_ASC_NODE = 329.1108
ARG_OF_PERICENTER = 348.4493
MEAN_ANOMALY   = 132.8619

EPHEMERIS_TYPE = 0
CLASSIFICATION_TYPE = U
NORAD_CAT_ID   = 27601
ELEMENT_SET_NO = 999
REV_AT_EPOCH   = 20517
BSTAR          = .19936603E-3
MEAN_MOTION_DOT = .527E-5
MEAN_MOTION_DDOT = 0

CCSDS_OMM_VERS = 2.0
CREATION_DATE  = 
ORIGINATOR     = 

OBJECT_NAME    = CZ-4B R/B
OBJECT_ID      = 2003-049C
CENTER_NAME    = EARTH
REF_FRAME      = TEME
TIME_SYSTEM    = UTC
MEAN_ELEMENT_THEORY = SGP/SGP4

EPOCH          = 2026-01-06T05:11:11.949792
MEAN_MOTION    = 14.54939225
ECCENTRICITY   = .00492427
INCLINATION    = 98.6806
RA_OF_ASC_NODE = 358.7072
ARG_OF_PERICENTER = 62.9364
MEAN_ANOMALY   = 297.6845

EPHEMERIS_TYPE = 0
CLASSIFICATION_TYPE = U
NORAD_CAT_ID   = 28059
ELEMENT_SET_NO = 999
REV_AT_EPOCH   = 17751
BSTAR          = .14738813E-3
MEAN_MOTION_DOT = .593E-5
MEAN_MOTION_DDOT = 0

CCSDS_OMM_VERS = 2.0
CREATION_DATE  = 
ORIGINATOR     = 

OBJECT_NAME    = CZ-2C R/B
OBJECT_ID      = 2004-012C
CENTER_NAME    = EARTH
REF_FRAME      = TEME
TIME_SYSTEM    = UTC
MEAN_ELEMENT_THEORY = SGP/SGP4

EPOCH          = 2026-01-06T02:31:05.093184
MEAN_MOTION    = 15.57715856
ECCENTRICITY   = .00167729
INCLINATION    = 97.7371
RA_OF_ASC_NODE = 65.7703
ARG_OF_PERICENTER = 177.6836
MEAN_ANOMALY   = 182.4499

EPHEMERIS_TYPE = 0
CLASSIFICATION_TYPE = U
NORAD_CAT_ID   = 28222
ELEMENT_SET_NO = 999
REV_AT_EPOCH   = 19451
BSTAR          = .63421335E-3
MEAN_MOTION_DOT = .47394E-3
MEAN_MOTION_DDOT = 0

CCSDS_OMM_VERS = 2.0
CREATION_DATE  = 
ORIGINATOR     = 

OBJECT_NAME    = SL-16 R/B
OBJECT_ID      = 2004-021B
CENTER_NAME    = EARTH
REF_FRAME      = TEME
TIME_SYSTEM    = UTC
MEAN_ELEMENT_THEORY = SGP/SGP4

EPOCH          = 2026-01-06T07:12:42.650496
MEAN_MOTION    = 14.14589345
ECCENTRICITY   = .00037356
INCLINATION    = 71.0019
RA_OF_ASC_NODE = 3.4213
ARG_OF_PERICENTER = 159.2102
MEAN_ANOMALY   = 200.9173

EPHEMERIS_TYPE = 0
CLASSIFICATION_TYPE = U
NORAD_CAT_ID   = 28353
ELEMENT_SET_NO = 999
REV_AT_EPOCH   = 11401
BSTAR          = .19239027E-3
MEAN_MOTION_DOT = .322E-5
MEAN_MOTION_DDOT = 0

CCSDS_OMM_VERS = 2.0
CREATION_DATE  = 
ORIGINATOR     = 

OBJECT_NAME    = CZ-4B R/B
OBJECT_ID      = 2004-035C
CENTER_NAME    = EARTH
REF_FRAME      = TEME
TIME_SYSTEM    = UTC
MEAN_ELEMENT_THEORY = SGP/SGP4

EPOCH          = 2026-01-06T01:26:49.190784
MEAN_MOTION    = 15.27855847
ECCENTRICITY   = .0032614
INCLINATION    = 97.3573
RA_OF_ASC_NODE = 41.0829
ARG_OF_PERICENTER = 188.0029
MEAN_ANOMALY   = 172.0695

EPHEMERIS_TYPE = 0
CLASSIFICATION_TYPE = U
NORAD_CAT_ID   = 28415
ELEMENT_SET_NO = 999
REV_AT_EPOCH   = 17034
BSTAR          = .35595372E-3
MEAN_MOTION_DOT = .9761E-4
MEAN_MOTION_DDOT = 0

CCSDS_OMM_VERS = 2.0
CREATION_DATE  = 
ORIGINATOR     = 

OBJECT_NAME    = CZ-2C R/B
OBJECT_ID      = 2004-046B
CENTER_NAME    = EARTH
REF_FRAME      = TEME
TIME_SYSTEM    = UTC
MEAN_ELEMENT_THEORY = SGP/SGP4

EPOCH          = 2026-01-06T06:57:55.571328
MEAN_MOTION    = 14.26960700
ECCENTRICITY   = .0139142
INCLINATION    = 98.1998
RA_OF_ASC_NODE = 285.1443
ARG_OF_PERICENTER = 339.8899
MEAN_ANOMALY   = 19.6832

EPHEMERIS_TYPE = 0
CLASSIFICATION_TYPE = U
NORAD_CAT_ID   = 28480
ELEMENT_SET_NO = 999
REV_AT_EPOCH   = 9960
BSTAR          = .16074749E-3
MEAN_MOTION_DOT = .391E-5
MEAN_MOTION_DDOT = 0

CCSDS_OMM_VERS = 2.0
CREATION_DATE  = 
ORIGINATOR     = 

OBJECT_NAME    = ARIANE 5 R/B
OBJECT_ID      = 2004-049H
CENTER_NAME    = EARTH
REF_FRAME      = TEME
TIME_SYSTEM    = UTC
MEAN_ELEMENT_THEORY = SGP/SGP4

EPOCH          = 2026-01-06T07:31:09.921792
MEAN_MOTION    = 14.85096948
ECCENTRICITY   = .00841336
INCLINATION    = 98.2535
RA_OF_ASC_NODE = 172.4793
ARG_OF_PERICENTER = 192.4629
MEAN_ANOMALY   = 167.4505

EPHEMERIS_TYPE = 0
CLASSIFICATION_TYPE = U
NORAD_CAT_ID   = 28499
ELEMENT_SET_NO = 999
REV_AT_EPOCH   = 13653
BSTAR          = .1768521E-3
MEAN_MOTION_DOT = .1546E-4
MEAN_MOTION_DDOT = 0

CCSDS_OMM_VERS = 2.0
CREATION_DATE  = 
ORIGINATOR     = 

OBJECT_NAME    = CZ-2D R/B
OBJECT_ID      = 2005-024B
CENTER_NAME    = EARTH
REF_FRAME      = TEME
TIME_SYSTEM    = UTC
MEAN_ELEMENT_THEORY = SGP/SGP4

EPOCH          = 2026-01-05T23:58:00.864768
MEAN_MOTION    = 15.54903282
ECCENTRICITY   = .00031226
INCLINATION    = 97.3620
RA_OF_ASC_NODE = 19.1072
ARG_OF_PERICENTER = 237.4686
MEAN_ANOMALY   = 122.6266

EPHEMERIS_TYPE = 0
CLASSIFICATION_TYPE = U
NORAD_CAT_ID   = 28738
ELEMENT_SET_NO = 999
REV_AT_EPOCH   = 13002
BSTAR          = .55843004E-3
MEAN_MOTION_DOT = .37328E-3
MEAN_MOTION_DDOT = 0

